{"type": "FeatureCollection", "features": [ {"type": "Feature", "properties": {"norad_id": 32260, "name": "GPS BIIRM-4 (PRN 15)", "group": "gnss", "lat": -1.931657060543291, "lon": -91.15132959521594, "alt_km": 20229.278217341314, "timestamp": "2025-12-20T11:30:28.619327+00:00", "meta": {"OBJECT_NAME": "GPS BIIRM-4 (PRN 15)", "OBJECT_ID": "2007-047A", "EPOCH": "2025-12-19T17:36:20.094624", "MEAN_MOTION": 2.00564284, "ECCENTRICITY": 0.0164062, "INCLINATION": 53.9598, "RA_OF_ASC_NODE": 87.4696, "ARG_OF_PERICENTER": 85.3303, "MEAN_ANOMALY": 276.5412, "EPHEMERIS_TYPE": 0, "CLASSIFICATION_TYPE": "U", "NORAD_CAT_ID": 32260, "ELEMENT_SET_NO": 999, "REV_AT_EPOCH": 13321, "BSTAR": 0, "MEAN_MOTION_DOT": -3.5e-07, "MEAN_MOTION_DDOT": 0}, "tle": {"line1": "1 32260U 07047A   25353.73356591 -.00000035  00000+0  00000+0 0  9995", "line2": "2 32260  53.9598  87.4696 0164062  85.3303 276.5412  2.00564284133213"}}, "geometry": {"type": "Point", "coordinates": [-91.15132959521594, -1.931657060543291]}}, {"type": "Feature", "properties": {"norad_id": 32275, "name": "COSMOS 2433 (720)", "group": "gnss", "lat": -65.66776814530313, "lon": -129.39685803044654, "alt_km": 19123.43283918099, "timestamp": "2025-12-20T11:30:28.619338+00:00", "meta": {"OBJECT_NAME": "COSMOS 2433 (720)", "OBJECT_ID": "2007-052A", "EPOCH": "2025-12-19T04:33:13.000320", "MEAN_MOTION": 2.13104199, "ECCENTRICITY": 0.0005237, "INCLINATION": 65.6796, "RA_OF_ASC_NODE": 321.9886, "ARG_OF_PERICENTER": 255.1824, "MEAN_ANOMALY": 104.7517, "EPHEMERIS_TYPE": 0, "CLASSIFICATION_TYPE": "U", "NORAD_CAT_ID": 32275, "ELEMENT_SET_NO": 999, "REV_AT_EPOCH": 14122, "BSTAR": 0, "MEAN_MOTION_DOT": -5.9e-07, "MEAN_MOTION_DDOT": 0}, "tle": {"line1": "1 32275U 07052A   25353.18973380 -.00000059  00000+0  00000+0 0  9993", "line2": "2 32275  65.6796 321.9886 0005237 255.1824 104.7517  2.13104199141226"}}, "geometry": {"type": "Point", "coordinates": [-129.39685803044654, -65.66776814530313]}}, {"type": "Feature", "properties": {"norad_id": 32276, "name": "COSMOS 2432 (719)", "group": "gnss", "lat": -30.4434415821228, "lon": 157.44945683474012, "alt_km": 19139.012285351233, "timestamp": "2025-12-20T11:30:28.619350+00:00", "meta": {"OBJECT_NAME": "COSMOS 2432 (719)", "OBJECT_ID": "2007-052B", "EPOCH": "2025-12-20T05:50:58.661664", "MEAN_MOTION": 2.13103398, "ECCENTRICITY": 0.0011339, "INCLINATION": 65.6947, "RA_OF_ASC_NODE": 322.0776, "ARG_OF_PERICENTER": 314.0223, "MEAN_ANOMALY": 78.9513, "EPHEMERIS_TYPE": 0, "CLASSIFICATION_TYPE": "U", "NORAD_CAT_ID": 32276, "ELEMENT_SET_NO": 999, "REV_AT_EPOCH": 14127, "BSTAR": 0, "MEAN_MOTION_DOT": -5.3e-07, "MEAN_MOTION_DDOT": 0}, "tle": {"line1": "1 32276U 07052B   25354.24373451 -.00000053  00000+0  00000+0 0  9999", "line2": "2 32276  65.6947 322.0776 0011339 314.0223  78.9513  2.13103398141276"}}, "geometry": {"type": "Point", "coordinates": [157.44945683474012, -30.4434415821228]}}, {"type": "Feature", "properties": {"norad_id": 32384, "name": "GPS BIIRM-5 (PRN 29)", "group": "gnss", "lat": -38.83876375967587, "lon": -112.70754313462677, "alt_km": 20258.341166313032, "timestamp": "2025-12-20T11:30:28.619361+00:00", "meta": {"OBJECT_NAME": "GPS BIIRM-5 (PRN 29)", "OBJECT_ID": "2007-062A", "EPOCH": "2025-12-19T04:08:10.010976", "MEAN_MOTION": 2.00577702, "ECCENTRICITY": 0.00322663, "INCLINATION": 55.1765, "RA_OF_ASC_NODE": 281.388, "ARG_OF_PERICENTER": 162.2119, "MEAN_ANOMALY": 283.9132, "EPHEMERIS_TYPE": 0, "CLASSIFICATION_TYPE": "U", "NORAD_CAT_ID": 32384, "ELEMENT_SET_NO": 999, "REV_AT_EPOCH": 13190, "BSTAR": 0, "MEAN_MOTION_DOT": -3.8e-07, "MEAN_MOTION_DDOT": 0}, "tle": {"line1": "1 32384U 07062A   25353.17233809 -.00000038  00000+0  00000+0 0  9996", "line2": "2 32384  55.1765 281.3880 0032266 162.2119 283.9132  2.00577702131904"}}, "geometry": {"type": "Point", "coordinates": [-112.70754313462677, -38.83876375967587]}}, {"type": "Feature", "properties": {"norad_id": 32393, "name": "COSMOS 2434 (721)", "group": "gnss", "lat": 17.913701751702295, "lon": 8.992193463689304, "alt_km": 19127.807650689047, "timestamp": "2025-12-20T11:30:28.619373+00:00", "meta": {"OBJECT_NAME": "COSMOS 2434 (721)", "OBJECT_ID": "2007-065A", "EPOCH": "2025-12-20T00:52:30.194976", "MEAN_MOTION": 2.13101416, "ECCENTRICITY": 0.0004647, "INCLINATION": 64.3151, "RA_OF_ASC_NODE": 197.9569, "ARG_OF_PERICENTER": 71.3927, "MEAN_ANOMALY": 108.7267, "EPHEMERIS_TYPE": 0, "CLASSIFICATION_TYPE": "U", "NORAD_CAT_ID": 32393, "ELEMENT_SET_NO": 999, "REV_AT_EPOCH": 13995, "BSTAR": 0, "MEAN_MOTION_DOT": 1.02e-06, "MEAN_MOTION_DDOT": 0}, "tle": {"line1": "1 32393U 07065A   25354.03646059  .00000102  00000+0  00000+0 0  9991", "line2": "2 32393  64.3151 197.9569 0004647  71.3927 108.7267  2.13101416139955"}}, "geometry": {"type": "Point", "coordinates": [8.992193463689304, 17.913701751702295]}}, {"type": "Feature", "properties": {"norad_id": 32395, "name": "COSMOS 2436 (723)", "group": "gnss", "lat": -56.17234332510699, "lon": 152.1083378256136, "alt_km": 19125.993085546055, "timestamp": "2025-12-20T11:30:28.619385+00:00", "meta": {"OBJECT_NAME": "COSMOS 2436 (723)", "OBJECT_ID": "2007-065C", "EPOCH": "2025-12-19T09:42:12.629376", "MEAN_MOTION": 2.13100261, "ECCENTRICITY": 0.0017823, "INCLINATION": 64.3238, "RA_OF_ASC_NODE": 198.0487, "ARG_OF_PERICENTER": 9.8735, "MEAN_ANOMALY": 178.3327, "EPHEMERIS_TYPE": 0, "CLASSIFICATION_TYPE": "U", "NORAD_CAT_ID": 32395, "ELEMENT_SET_NO": 999, "REV_AT_EPOCH": 13989, "BSTAR": 0, "MEAN_MOTION_DOT": 1.05e-06, "MEAN_MOTION_DDOT": 0}, "tle": {"line1": "1 32395U 07065C   25353.40431284  .00000105  00000+0  00000+0 0  9998", "line2": "2 32395  64.3238 198.0487 0017823   9.8735 178.3327  2.13100261139897"}}, "geometry": {"type": "Point", "coordinates": [152.1083378256136, -56.17234332510699]}}, {"type": "Feature", "properties": {"norad_id": 32711, "name": "GPS BIIRM-6 (PRN 07)", "group": "gnss", "lat": -40.96916230296633, "lon": 15.408326132737114, "alt_km": 19658.813959049523, "timestamp": "2025-12-20T11:30:28.619397+00:00", "meta": {"OBJECT_NAME": "GPS BIIRM-6 (PRN 07)", "OBJECT_ID": "2008-012A", "EPOCH": "2025-12-19T15:41:26.858112", "MEAN_MOTION": 2.00565937, "ECCENTRICITY": 0.0202735, "INCLINATION": 54.4779, "RA_OF_ASC_NODE": 157.0969, "ARG_OF_PERICENTER": 245.0276, "MEAN_ANOMALY": 112.8468, "EPHEMERIS_TYPE": 0, "CLASSIFICATION_TYPE": "U", "NORAD_CAT_ID": 32711, "ELEMENT_SET_NO": 999, "REV_AT_EPOCH": 13015, "BSTAR": 0, "MEAN_MOTION_DOT": 6.7e-07, "MEAN_MOTION_DDOT": 0}, "tle": {"line1": "1 32711U 08012A   25353.65378308  .00000067  00000+0  00000+0 0  9994", "line2": "2 32711  54.4779 157.0969 0202735 245.0276 112.8468  2.00565937130151"}}, "geometry": {"type": "Point", "coordinates": [15.408326132737114, -40.96916230296633]}}, {"type": "Feature", "properties": {"norad_id": 35752, "name": "GPS BIIRM-8 (PRN 05)", "group": "gnss", "lat": -52.94329442011052, "lon": -82.61561697008145, "alt_km": 20323.998506203116, "timestamp": "2025-12-20T11:30:28.619408+00:00", "meta": {"OBJECT_NAME": "GPS BIIRM-8 (PRN 05)", "OBJECT_ID": "2009-043A", "EPOCH": "2025-12-20T02:09:52.509312", "MEAN_MOTION": 2.00565329, "ECCENTRICITY": 0.0051647, "INCLINATION": 56.096, "RA_OF_ASC_NODE": 34.4932, "ARG_OF_PERICENTER": 81.7821, "MEAN_ANOMALY": 251.1308, "EPHEMERIS_TYPE": 0, "CLASSIFICATION_TYPE": "U", "NORAD_CAT_ID": 35752, "ELEMENT_SET_NO": 999, "REV_AT_EPOCH": 11976, "BSTAR": 0, "MEAN_MOTION_DOT": -6.1e-07, "MEAN_MOTION_DDOT": 0}, "tle": {"line1": "1 35752U 09043A   25354.09019108 -.00000061  00000+0  00000+0 0  9991", "line2": "2 35752  56.0960  34.4932 0051647  81.7821 251.1308  2.00565329119761"}}, "geometry": {"type": "Point", "coordinates": [-82.61561697008145, -52.94329442011052]}}, {"type": "Feature", "properties": {"norad_id": 36111, "name": "COSMOS 2456 (730)", "group": "gnss", "lat": -38.058722161013606, "lon": 55.6004410388556, "alt_km": 19126.702619499374, "timestamp": "2025-12-20T11:30:28.619420+00:00", "meta": {"OBJECT_NAME": "COSMOS 2456 (730)", "OBJECT_ID": "2009-070A", "EPOCH": "2025-12-20T03:13:18.516576", "MEAN_MOTION": 2.13103685, "ECCENTRICITY": 0.0003301, "INCLINATION": 64.904, "RA_OF_ASC_NODE": 77.0852, "ARG_OF_PERICENTER": 296.9564, "MEAN_ANOMALY": 115.2996, "EPHEMERIS_TYPE": 0, "CLASSIFICATION_TYPE": "U", "NORAD_CAT_ID": 36111, "ELEMENT_SET_NO": 999, "REV_AT_EPOCH": 12461, "BSTAR": 0, "MEAN_MOTION_DOT": -2.2e-07, "MEAN_MOTION_DDOT": 0}, "tle": {"line1": "1 36111U 09070A   25354.13424209 -.00000022  00000+0  00000+0 0  9995", "line2": "2 36111  64.9040  77.0852 0003301 296.9564 115.2996  2.13103685124610"}}, "geometry": {"type": "Point", "coordinates": [55.6004410388556, -38.058722161013606]}}, {"type": "Feature", "properties": {"norad_id": 36112, "name": "COSMOS 2457 (733)", "group": "gnss", "lat": 64.6376178160428, "lon": 157.88279881698122, "alt_km": 19120.04051095589, "timestamp": "2025-12-20T11:30:28.619431+00:00", "meta": {"OBJECT_NAME": "COSMOS 2457 (733)", "OBJECT_ID": "2009-070B", "EPOCH": "2025-12-19T12:47:22.832160", "MEAN_MOTION": 2.13101086, "ECCENTRICITY": 0.0004579, "INCLINATION": 64.8894, "RA_OF_ASC_NODE": 76.9529, "ARG_OF_PERICENTER": 161.1215, "MEAN_ANOMALY": 278.8833, "EPHEMERIS_TYPE": 0, "CLASSIFICATION_TYPE": "U", "NORAD_CAT_ID": 36112, "ELEMENT_SET_NO": 999, "REV_AT_EPOCH": 12460, "BSTAR": 0, "MEAN_MOTION_DOT": -2.8e-07, "MEAN_MOTION_DDOT": 0}, "tle": {"line1": "1 36112U 09070B   25353.53290315 -.00000028  00000+0  00000+0 0  9994", "line2": "2 36112  64.8894  76.9529 0004579 161.1215 278.8833  2.13101086124608"}}, "geometry": {"type": "Point", "coordinates": [157.88279881698122, 64.6376178160428]}}]}